{
  "type": "FeatureCollection",
  "features": [
    {
      "type": "Feature",
      "properties": {
        "norad_id": 40115,
        "name": "WORLDVIEW-3 (WV-3)",
        "group": "resource",
        "lat": 79.64571757559752,
        "lon": -80.23284599156614,
        "alt_km": 606.0910512122709,
        "timestamp": "2025-12-04T05:42:43.035008+00:00",
        "meta_object_name": "WORLDVIEW-3 (WV-3)",
        "meta_object_id": "2014-048A",
        "meta_epoch": "2025-12-03T21:11:40.574400",
        "meta_mean_motion": 14.85476881,
        "meta_eccentricity": 0.00041112,
        "meta_inclination": 97.8626,
        "meta_ra_of_asc_node": 50.2746,
        "meta_arg_of_pericenter": 216.6115,
        "meta_mean_anomaly": 143.482,
        "meta_ephemeris_type": 0,
        "meta_classification_type": "U",
        "meta_norad_cat_id": 40115,
        "meta_element_set_no": 999,
        "meta_rev_at_epoch": 61292,
        "meta_bstar": 0.00025704872,
        "meta_mean_motion_dot": 2.164e-05,
        "meta_mean_motion_ddot": 0,
        "tle_line1": "1 40115U 14048A   25337.88310850  .00002164  00000+0  25705-3 0  9995",
        "tle_line2": "2 40115  97.8626  50.2746 0004111 216.6115 143.4820 14.85476881612928"
      },
      "geometry": {
        "type": "Point",
        "coordinates": [
          -80.23284599156614,
          79.64571757559752
        ]
      }
    },
    {
      "type": "Feature",
      "properties": {
        "norad_id": 40118,
        "name": "GAOFEN-2",
        "group": "resource",
        "lat": 62.49560861913571,
        "lon": 21.639760908021398,
        "alt_km": 619.7648241961806,
        "timestamp": "2025-12-04T05:42:43.035018+00:00",
        "meta_object_name": "GAOFEN-2",
        "meta_object_id": "2014-049A",
        "meta_epoch": "2025-12-03T22:56:15.718272",
        "meta_mean_motion": 14.80584377,
        "meta_eccentricity": 0.00082328,
        "meta_inclination": 98.0397,
        "meta_ra_of_asc_node": 37.1085,
        "meta_arg_of_pericenter": 138.2448,
        "meta_mean_anomaly": 221.9393,
        "meta_ephemeris_type": 0,
        "meta_classification_type": "U",
        "meta_norad_cat_id": 40118,
        "meta_element_set_no": 999,
        "meta_rev_at_epoch": 61034,
        "meta_bstar": 0.0002005687,
        "meta_mean_motion_dot": 1.485e-05,
        "meta_mean_motion_ddot": 0,
        "tle_line1": "1 40118U 14049A   25337.95573748  .00001485  00000+0  20057-3 0  9994",
        "tle_line2": "2 40118  98.0397  37.1085 0008232 138.2448 221.9393 14.80584377610341"
      },
      "geometry": {
        "type": "Point",
        "coordinates": [
          21.639760908021398,
          62.49560861913571
        ]
      }
    },
    {
      "type": "Feature",
      "properties": {
        "norad_id": 40143,
        "name": "YAOGAN-21",
        "group": "resource",
        "lat": 25.96331867188284,
        "lon": -154.56069260706707,
        "alt_km": 494.007272826997,
        "timestamp": "2025-12-04T05:42:43.035028+00:00",
        "meta_object_name": "YAOGAN-21",
        "meta_object_id": "2014-053A",
        "meta_epoch": "2025-12-03T22:44:06.466848",
        "meta_mean_motion": 15.23504825,
        "meta_eccentricity": 0.00101998,
        "meta_inclination": 97.1772,
        "meta_ra_of_asc_node": 21.6433,
        "meta_arg_of_pericenter": 68.432,
        "meta_mean_anomaly": 291.8003,
        "meta_ephemeris_type": 0,
        "meta_classification_type": "U",
        "meta_norad_cat_id": 40143,
        "meta_element_set_no": 999,
        "meta_rev_at_epoch": 62520,
        "meta_bstar": 0.00063767311,
        "meta_mean_motion_dot": 0.00015191,
        "meta_mean_motion_ddot": 0,
        "tle_line1": "1 40143U 14053A   25337.94729707  .00015191  00000+0  63767-3 0  9998",
        "tle_line2": "2 40143  97.1772  21.6433 0010199  68.4320 291.8003 15.23504825625202"
      },
      "geometry": {
        "type": "Point",
        "coordinates": [
          -154.56069260706707,
          25.96331867188284
        ]
      }
    },
    {
      "type": "Feature",
      "properties": {
        "norad_id": 40275,
        "name": "YAOGAN-22",
        "group": "resource",
        "lat": -45.13309281153289,
        "lon": -69.45621735649453,
        "alt_km": 1205.1408708704566,
        "timestamp": "2025-12-04T05:42:43.035038+00:00",
        "meta_object_name": "YAOGAN-22",
        "meta_object_id": "2014-063A",
        "meta_epoch": "2025-12-03T23:05:23.791488",
        "meta_mean_motion": 13.15522462,
        "meta_eccentricity": 0.00058831,
        "meta_inclination": 100.7418,
        "meta_ra_of_asc_node": 121.2578,
        "meta_arg_of_pericenter": 269.4316,
        "meta_mean_anomaly": 90.6121,
        "meta_ephemeris_type": 0,
        "meta_classification_type": "U",
        "meta_norad_cat_id": 40275,
        "meta_element_set_no": 999,
        "meta_rev_at_epoch": 53414,
        "meta_bstar": 0.0001631289,
        "meta_mean_motion_dot": 1.5e-07,
        "meta_mean_motion_ddot": 0,
        "tle_line1": "1 40275U 14063A   25337.96208092  .00000015  00000+0  16313-3 0  9990",
        "tle_line2": "2 40275 100.7418 121.2578 0005883 269.4316  90.6121 13.15522462534149"
      },
      "geometry": {
        "type": "Point",
        "coordinates": [
          -69.45621735649453,
          -45.13309281153289
        ]
      }
    },
    {
      "type": "Feature",
      "properties": {
        "norad_id": 40298,
        "name": "ASNARO",
        "group": "resource",
        "lat": -28.944201724658967,
        "lon": 58.49782052274941,
        "alt_km": 517.721657721594,
        "timestamp": "2025-12-04T05:42:43.035048+00:00",
        "meta_object_name": "ASNARO",
        "meta_object_id": "2014-070A",
        "meta_epoch": "2025-12-04T01:05:52.938240",
        "meta_mean_motion": 15.19205311,
        "meta_eccentricity": 0.0005153,
        "meta_inclination": 97.3669,
        "meta_ra_of_asc_node": 54.2072,
        "meta_arg_of_pericenter": 147.48,
        "meta_mean_anomaly": 212.6753,
        "meta_ephemeris_type": 0,
        "meta_classification_type": "U",
        "meta_norad_cat_id": 40298,
        "meta_element_set_no": 999,
        "meta_rev_at_epoch": 61437,
        "meta_bstar": 0.00098587,
        "meta_mean_motion_dot": 0.00020733,
        "meta_mean_motion_ddot": 0,
        "tle_line1": "1 40298U 14070A   25338.04575160  .00020733  00000+0  98587-3 0  9998",
        "tle_line2": "2 40298  97.3669  54.2072 0005153 147.4800 212.6753 15.19205311614378"
      },
      "geometry": {
        "type": "Point",
        "coordinates": [
          58.49782052274941,
          -28.944201724658967
        ]
      }
    },
    {
      "type": "Feature",
      "properties": {
        "norad_id": 40310,
        "name": "YAOGAN-24",
        "group": "resource",
        "lat": -3.0570198370722816,
        "lon": -71.15064046932568,
        "alt_km": 635.3982960565108,
        "timestamp": "2025-12-04T05:42:43.035058+00:00",
        "meta_object_name": "YAOGAN-24",
        "meta_object_id": "2014-072A",
        "meta_epoch": "2025-12-04T00:00:20.169216",
        "meta_mean_motion": 14.76147906,
        "meta_eccentricity": 0.00142909,
        "meta_inclination": 98.1218,
        "meta_ra_of_asc_node": 109.0474,
        "meta_arg_of_pericenter": 165.0865,
        "meta_mean_anomaly": 195.0768,
        "meta_ephemeris_type": 0,
        "meta_classification_type": "U",
        "meta_norad_cat_id": 40310,
        "meta_element_set_no": 999,
        "meta_rev_at_epoch": 59492,
        "meta_bstar": 0.00027008168,
        "meta_mean_motion_dot": 1.816e-05,
        "meta_mean_motion_ddot": 0,
        "tle_line1": "1 40310U 14072A   25338.00023344  .00001816  00000+0  27008-3 0  9994",
        "tle_line2": "2 40310  98.1218 109.0474 0014290 165.0865 195.0768 14.76147906594921"
      },
      "geometry": {
        "type": "Point",
        "coordinates": [
          -71.15064046932568,
          -3.0570198370722816
        ]
      }
    },
    {
      "type": "Feature",
      "properties": {
        "norad_id": 40336,
        "name": "CBERS 4",
        "group": "resource",
        "lat": 80.59448450368035,
        "lon": -25.672429451951803,
        "alt_km": 765.072500071833,
        "timestamp": "2025-12-04T05:42:43.035069+00:00",
        "meta_object_name": "CBERS 4",
        "meta_object_id": "2014-079A",
        "meta_epoch": "2025-12-04T00:17:45.965184",
        "meta_mean_motion": 14.35528976,
        "meta_eccentricity": 0.00014752,
        "meta_inclination": 98.3322,
        "meta_ra_of_asc_node": 36.3274,
        "meta_arg_of_pericenter": 126.1377,
        "meta_mean_anomaly": 233.9945,
        "meta_ephemeris_type": 0,
        "meta_classification_type": "U",
        "meta_norad_cat_id": 40336,
        "meta_element_set_no": 999,
        "meta_rev_at_epoch": 57595,
        "meta_bstar": 0.00012879181,
        "meta_mean_motion_dot": 3.29e-06,
        "meta_mean_motion_ddot": 0,
        "tle_line1": "1 40336U 14079A   25338.01233756  .00000329  00000+0  12879-3 0  9998",
        "tle_line2": "2 40336  98.3322  36.3274 0001475 126.1377 233.9945 14.35528976575950"
      },
      "geometry": {
        "type": "Point",
        "coordinates": [
          -25.672429451951803,
          80.59448450368035
        ]
      }
    }
  ]
}